start=new Date('2022-05-09T00:00:00.000Z').valueOf();
sats=[{"NORAD_CAT_ID":"48364","CLASSIFICATION_TYPE":"U","MEAN_ELEMENT_THEORY":"SGP4","COUNTRY_CODE":"US","SITE":"AFETR","OBJECT_ID":"2021-038M","SEMIMAJOR_AXIS":"6925.362","REF_FRAME":"TEME","FILE":"3435746","EPOCH":"2022-05-08T11:55:36.557760","APOAPSIS":"548.380","TLE_LINE2":"2 48364  53.0539 166.8204 0001664  60.7278 299.3877 15.06395557 55906","REV_AT_EPOCH":"5590","PERIAPSIS":"546.075","ELEMENT_SET_NO":"999","ECCENTRICITY":"0.00016640","OBJECT_NAME":"STARLINK-2611","ARG_OF_PERICENTER":"60.7278","EPHEMERIS_TYPE":"0","MEAN_MOTION_DDOT":"0.0000000000000","LAUNCH_DATE":"2021-05-04","MEAN_ANOMALY":"299.3877","MEAN_MOTION":"15.06395557","OBJECT_TYPE":"PAYLOAD","BSTAR":"0.00005054400000","TIME_SYSTEM":"UTC","TLE_LINE1":"1 48364U 21038M   22128.49695090  .00000471  00000-0  50544-4 0  9990","DECAY_DATE":null,"RCS_SIZE":"LARGE","INCLINATION":"53.0539","GP_ID":"203015183","CENTER_NAME":"EARTH","RA_OF_ASC_NODE":"166.8204","PERIOD":"95.592","MEAN_MOTION_DOT":"0.00000471"},{"OBJECT_TYPE":"PAYLOAD","BSTAR":"0.00006384300000","TLE_LINE1":"1 48365U 21038N   22128.54212793  .00000669  00000-0  63843-4 0  9997","TIME_SYSTEM":"UTC","DECAY_DATE":null,"INCLINATION":"53.0541","GP_ID":"203023580","RCS_SIZE":"LARGE","CENTER_NAME":"EARTH","MEAN_MOTION_DOT":"0.00000669","PERIOD":"95.593","RA_OF_ASC_NODE":"166.6272","ARG_OF_PERICENTER":"47.3447","EPHEMERIS_TYPE":"0","MEAN_ANOMALY":"312.7684","LAUNCH_DATE":"2021-05-04","MEAN_MOTION_DDOT":"0.0000000000000","MEAN_MOTION":"15.06392180","SEMIMAJOR_AXIS":"6925.373","OBJECT_ID":"2021-038N","REF_FRAME":"TEME","FILE":"3435919","EPOCH":"2022-05-08T13:00:39.853152","APOAPSIS":"548.411","TLE_LINE2":"2 48365  53.0541 166.6272 0001694  47.3447 312.7684 15.06392180 56507","REV_AT_EPOCH":"5650","PERIAPSIS":"546.064","ELEMENT_SET_NO":"999","OBJECT_NAME":"STARLINK-2608","ECCENTRICITY":"0.00016940","NORAD_CAT_ID":"48365","CLASSIFICATION_TYPE":"U","MEAN_ELEMENT_THEORY":"SGP4","SITE":"AFETR","COUNTRY_CODE":"US"},{"GP_ID":"203016191","INCLINATION":"53.0552","RCS_SIZE":"LARGE","CENTER_NAME":"EARTH","PERIOD":"95.592","RA_OF_ASC_NODE":"161.9696","MEAN_MOTION_DOT":"0.00000430","BSTAR":"0.00004774800000","OBJECT_TYPE":"PAYLOAD","TLE_LINE1":"1 48366U 21038P   22128.46333457  .00000430  00000-0  47748-4 0  9992","TIME_SYSTEM":"UTC","DECAY_DATE":null,"LAUNCH_DATE":"2021-05-04","MEAN_MOTION_DDOT":"0.0000000000000","MEAN_ANOMALY":"305.7632","MEAN_MOTION":"15.06398888","ARG_OF_PERICENTER":"54.3503","EPHEMERIS_TYPE":"0","REV_AT_EPOCH":"5596","TLE_LINE2":"2 48366  53.0552 161.9696 0001561  54.3503 305.7632 15.06398888 55967","ELEMENT_SET_NO":"999","PERIAPSIS":"546.136","OBJECT_NAME":"STARLINK-2631","ECCENTRICITY":"0.00015610","SEMIMAJOR_AXIS":"6925.352","OBJECT_ID":"2021-038P","REF_FRAME":"TEME","FILE":"3435746","APOAPSIS":"548.298","EPOCH":"2022-05-08T11:07:12.106848","SITE":"AFETR","COUNTRY_CODE":"US","CLASSIFICATION_TYPE":"U","NORAD_CAT_ID":"48366","MEAN_ELEMENT_THEORY":"SGP4"},{"MEAN_MOTION":"15.06397938","LAUNCH_DATE":"2021-05-04","MEAN_ANOMALY":"310.9210","MEAN_MOTION_DDOT":"0.0000000000000","EPHEMERIS_TYPE":"0","ARG_OF_PERICENTER":"49.1937","CENTER_NAME":"EARTH","PERIOD":"95.592","RA_OF_ASC_NODE":"161.9971","MEAN_MOTION_DOT":"0.00000040","RCS_SIZE":"LARGE","GP_ID":"203014940","INCLINATION":"53.0551","TIME_SYSTEM":"UTC","TLE_LINE1":"1 48367U 21038Q   22128.45964849  .00000040  00000-0  21562-4 0  9990","DECAY_DATE":null,"BSTAR":"0.00002156200000","OBJECT_TYPE":"PAYLOAD","COUNTRY_CODE":"US","SITE":"AFETR","MEAN_ELEMENT_THEORY":"SGP4","NORAD_CAT_ID":"48367","CLASSIFICATION_TYPE":"U","PERIAPSIS":"545.959","ELEMENT_SET_NO":"999","ECCENTRICITY":"0.00018210","OBJECT_NAME":"STARLINK-2643","TLE_LINE2":"2 48367  53.0551 161.9971 0001821  49.1937 310.9210 15.06397938 55960","REV_AT_EPOCH":"5596","FILE":"3435746","EPOCH":"2022-05-08T11:01:53.629536","APOAPSIS":"548.481","OBJECT_ID":"2021-038Q","SEMIMAJOR_AXIS":"6925.355","REF_FRAME":"TEME"},{"COUNTRY_CODE":"US","SITE":"AFETR","MEAN_ELEMENT_THEORY":"SGP4","NORAD_CAT_ID":"48368","CLASSIFICATION_TYPE":"U","ECCENTRICITY":"0.00019790","OBJECT_NAME":"STARLINK-2623","PERIAPSIS":"545.831","ELEMENT_SET_NO":"999","REV_AT_EPOCH":"5596","TLE_LINE2":"2 48368  53.0545 162.1978 0001979  49.0528 311.0632 15.06403971 55968","APOAPSIS":"548.572","EPOCH":"2022-05-08T09:51:31.795488","FILE":"3435746","REF_FRAME":"TEME","OBJECT_ID":"2021-038R","SEMIMAJOR_AXIS":"6925.336","MEAN_MOTION":"15.06403971","MEAN_ANOMALY":"311.0632","LAUNCH_DATE":"2021-05-04","MEAN_MOTION_DDOT":"0.0000000000000","EPHEMERIS_TYPE":"0","ARG_OF_PERICENTER":"49.0528","MEAN_MOTION_DOT":"0.00001002","PERIOD":"95.592","RA_OF_ASC_NODE":"162.1978","CENTER_NAME":"EARTH","RCS_SIZE":"LARGE","INCLINATION":"53.0545","GP_ID":"203015682","DECAY_DATE":null,"TIME_SYSTEM":"UTC","TLE_LINE1":"1 48368U 21038R   22128.41078467  .00001002  00000-0  86167-4 0  9990","BSTAR":"0.00008616700000","OBJECT_TYPE":"PAYLOAD"},{"BSTAR":"0.00001705700000","OBJECT_TYPE":"PAYLOAD","DECAY_DATE":null,"TIME_SYSTEM":"UTC","TLE_LINE1":"1 48369U 21038S   22128.38962124 -.00000028  00000-0  17057-4 0  9999","RCS_SIZE":"LARGE","INCLINATION":"53.0554","GP_ID":"203015935","PERIOD":"95.593","MEAN_MOTION_DOT":"-0.00000028","RA_OF_ASC_NODE":"162.3013","CENTER_NAME":"EARTH","ARG_OF_PERICENTER":"41.5913","EPHEMERIS_TYPE":"0","MEAN_ANOMALY":"318.5235","LAUNCH_DATE":"2021-05-04","MEAN_MOTION_DDOT":"0.0000000000000","MEAN_MOTION":"15.06391023","REF_FRAME":"TEME","OBJECT_ID":"2021-038S","SEMIMAJOR_AXIS":"6925.376","EPOCH":"2022-05-08T09:21:03.275136","APOAPSIS":"548.695","FILE":"3435746","TLE_LINE2":"2 48369  53.0554 162.3013 0002099  41.5913 318.5235 15.06391023 55954","REV_AT_EPOCH":"5595","ECCENTRICITY":"0.00020990","OBJECT_NAME":"STARLINK-2641","ELEMENT_SET_NO":"999","PERIAPSIS":"545.787","NORAD_CAT_ID":"48369","CLASSIFICATION_TYPE":"U","MEAN_ELEMENT_THEORY":"SGP4","COUNTRY_CODE":"US","SITE":"AFETR"},{"EPHEMERIS_TYPE":"0","ARG_OF_PERICENTER":"39.9884","MEAN_MOTION":"15.06402766","MEAN_ANOMALY":"320.1248","LAUNCH_DATE":"2021-05-04","MEAN_MOTION_DDOT":"0.0000000000000","DECAY_DATE":null,"TIME_SYSTEM":"UTC","TLE_LINE1":"1 48370U 21038T   22128.78400520 -.00000209  00000-0  48862-5 0  9992","BSTAR":"0.00000488620000","OBJECT_TYPE":"PAYLOAD","PERIOD":"95.592","RA_OF_ASC_NODE":"160.5326","MEAN_MOTION_DOT":"-0.00000209","CENTER_NAME":"EARTH","RCS_SIZE":"LARGE","INCLINATION":"53.0548","GP_ID":"203023671","MEAN_ELEMENT_THEORY":"SGP4","NORAD_CAT_ID":"48370","CLASSIFICATION_TYPE":"U","COUNTRY_CODE":"US","SITE":"AFETR","EPOCH":"2022-05-08T18:48:58.049280","APOAPSIS":"548.557","FILE":"3435928","REF_FRAME":"TEME","OBJECT_ID":"2021-038T","SEMIMAJOR_AXIS":"6925.340","ECCENTRICITY":"0.00019520","OBJECT_NAME":"STARLINK-2621","ELEMENT_SET_NO":"999","PERIAPSIS":"545.853","REV_AT_EPOCH":"5660","TLE_LINE2":"2 48370  53.0548 160.5326 0001952  39.9884 320.1248 15.06402766 56604"},{"FILE":"3435928","EPOCH":"2022-05-08T18:43:41.045952","APOAPSIS":"548.616","SEMIMAJOR_AXIS":"6925.389","OBJECT_ID":"2021-038U","REF_FRAME":"TEME","ELEMENT_SET_NO":"999","PERIAPSIS":"545.891","OBJECT_NAME":"STARLINK-2589","ECCENTRICITY":"0.00019670","REV_AT_EPOCH":"5660","TLE_LINE2":"2 48371  53.0541 160.5569 0001967  50.5549 309.5614 15.06386917 56607","MEAN_ELEMENT_THEORY":"SGP4","CLASSIFICATION_TYPE":"U","NORAD_CAT_ID":"48371","SITE":"AFETR","COUNTRY_CODE":"US","TLE_LINE1":"1 48371U 21038U   22128.78033618 -.00001342  00000-0 -71218-4 0  9993","TIME_SYSTEM":"UTC","DECAY_DATE":null,"OBJECT_TYPE":"PAYLOAD","BSTAR":"-0.00007121800000","CENTER_NAME":"EARTH","PERIOD":"95.593","MEAN_MOTION_DOT":"-0.00001342","RA_OF_ASC_NODE":"160.5569","INCLINATION":"53.0541","GP_ID":"203023176","RCS_SIZE":"LARGE","EPHEMERIS_TYPE":"0","ARG_OF_PERICENTER":"50.5549","MEAN_MOTION":"15.06386917","MEAN_MOTION_DDOT":"0.0000000000000","LAUNCH_DATE":"2021-05-04","MEAN_ANOMALY":"309.5614"},{"EPHEMERIS_TYPE":"0","ARG_OF_PERICENTER":"37.9295","MEAN_MOTION":"15.06393319","MEAN_MOTION_DDOT":"0.0000000000000","LAUNCH_DATE":"2021-05-04","MEAN_ANOMALY":"322.1833","DECAY_DATE":null,"TIME_SYSTEM":"UTC","TLE_LINE1":"1 48372U 21038V   22128.51125521 -.00001641  00000-0 -91296-4 0  9990","OBJECT_TYPE":"PAYLOAD","BSTAR":"-0.00009129600000","PERIOD":"95.593","MEAN_MOTION_DOT":"-0.00001641","RA_OF_ASC_NODE":"161.7642","CENTER_NAME":"EARTH","RCS_SIZE":"LARGE","GP_ID":"203015184","INCLINATION":"53.0543","MEAN_ELEMENT_THEORY":"SGP4","NORAD_CAT_ID":"48372","CLASSIFICATION_TYPE":"U","COUNTRY_CODE":"US","SITE":"AFETR","EPOCH":"2022-05-08T12:16:12.450144","APOAPSIS":"548.604","FILE":"3435746","REF_FRAME":"TEME","OBJECT_ID":"2021-038V","SEMIMAJOR_AXIS":"6925.369","ECCENTRICITY":"0.00019780","OBJECT_NAME":"STARLINK-2572","ELEMENT_SET_NO":"999","PERIAPSIS":"545.864","TLE_LINE2":"2 48372  53.0543 161.7642 0001978  37.9295 322.1833 15.06393319 55971","REV_AT_EPOCH":"5597"},{"MEAN_MOTION_DOT":"0.00001553","PERIOD":"95.592","RA_OF_ASC_NODE":"161.7791","CENTER_NAME":"EARTH","RCS_SIZE":"LARGE","GP_ID":"203016435","INCLINATION":"53.0525","DECAY_DATE":null,"TIME_SYSTEM":"UTC","TLE_LINE1":"1 48373U 21038W   22128.50756733  .00001553  00000-0  12313-3 0  9997","OBJECT_TYPE":"PAYLOAD","BSTAR":"0.00012313000000","MEAN_MOTION":"15.06400361","MEAN_MOTION_DDOT":"0.0000000000000","LAUNCH_DATE":"2021-05-04","MEAN_ANOMALY":"299.1433","EPHEMERIS_TYPE":"0","ARG_OF_PERICENTER":"60.9718","ECCENTRICITY":"0.00016120","OBJECT_NAME":"STARLINK-2609","PERIAPSIS":"546.096","ELEMENT_SET_NO":"999","TLE_LINE2":"2 48373  53.0525 161.7791 0001612  60.9718 299.1433 15.06400361 55973","REV_AT_EPOCH":"5597","APOAPSIS":"548.329","EPOCH":"2022-05-08T12:10:53.817312","FILE":"3435746","REF_FRAME":"TEME","OBJECT_ID":"2021-038W","SEMIMAJOR_AXIS":"6925.347","COUNTRY_CODE":"US","SITE":"AFETR","MEAN_ELEMENT_THEORY":"SGP4","NORAD_CAT_ID":"48373","CLASSIFICATION_TYPE":"U"}];
